{"type": "FeatureCollection", "features": [{"type": "Feature", "properties": {"norad_id": 28054, "name": "DMSP 5D-3 F16 (USA 172)", "group": "weather", "lat": 28.919618586378796, "lon": -157.46833836756346, "alt_km": 845.5922360607492, "timestamp": "2025-12-25T22:42:16.639223+00:00", "meta": {"OBJECT_NAME": "DMSP 5D-3 F16 (USA 172)", "OBJECT_ID": "2003-048A", "EPOCH": "2025-12-25T17:33:28.713312", "MEAN_MOTION": 14.14428688, "ECCENTRICITY": 0.0006242, "INCLINATION": 99.0038, "RA_OF_ASC_NODE": 17.2902, "ARG_OF_PERICENTER": 279.0952, "MEAN_ANOMALY": 220.2204, "EPHEMERIS_TYPE": 0, "CLASSIFICATION_TYPE": "U", "NORAD_CAT_ID": 28054, "ELEMENT_SET_NO": 999, "REV_AT_EPOCH": 14496, "BSTAR": 8.0066e-05, "MEAN_MOTION_DOT": 1.08e-06, "MEAN_MOTION_DDOT": 0}, "tle": {"line1": "1 28054U 03048A   25359.73158233  .00000108  00000+0  80066-4 0  9992", "line2": "2 28054  99.0038  17.2902 0006242 279.0952 220.2204 14.14428688144961"}}, "geometry": {"type": "Point", "coordinates": [-157.46833836756346, 28.919618586378796]}}, {"type": "Feature", "properties": {"norad_id": 28912, "name": "METEOSAT-9 (MSG-2)", "group": "weather", "lat": 8.111190043264331, "lon": 120.29783676000454, "alt_km": 36025.64358159947, "timestamp": "2025-12-25T22:42:16.639289+00:00", "meta": {"OBJECT_NAME": "METEOSAT-9 (MSG-2)", "OBJECT_ID": "2005-049B", "EPOCH": "2025-12-24T18:27:10.310976", "MEAN_MOTION": 1.00268275, "ECCENTRICITY": 0.00719695, "INCLINATION": 8.9553, "RA_OF_ASC_NODE": 55.846, "ARG_OF_PERICENTER": 282.2974, "MEAN_ANOMALY": 77.0088, "EPHEMERIS_TYPE": 0, "CLASSIFICATION_TYPE": "U", "NORAD_CAT_ID": 28912, "ELEMENT_SET_NO": 999, "REV_AT_EPOCH": 524, "BSTAR": 0, "MEAN_MOTION_DOT": 1.45e-06, "MEAN_MOTION_DDOT": 0}, "tle": {"line1": "1 28912U 05049B   25358.76886934  .00000145  00000+0  00000+0 0  9992", "line2": "2 28912   8.9553  55.8460 0071969 282.2974  77.0088  1.00268275  5240"}}, "geometry": {"type": "Point", "coordinates": [120.29783676000454, 8.111190043264331]}}, {"type": "Feature", "properties": {"norad_id": 29522, "name": "DMSP 5D-3 F17 (USA 191)", "group": "weather", "lat": 64.35587223127891, "lon": -156.25185672749777, "alt_km": 833.9588129838967, "timestamp": "2025-12-25T22:42:16.639307+00:00", "meta": {"OBJECT_NAME": "DMSP 5D-3 F17 (USA 191)", "OBJECT_ID": "2006-050A", "EPOCH": "2025-12-25T17:04:29.871840", "MEAN_MOTION": 14.14924949, "ECCENTRICITY": 0.0009964, "INCLINATION": 98.7393, "RA_OF_ASC_NODE": 4.8304, "ARG_OF_PERICENTER": 186.2751, "MEAN_ANOMALY": 173.8299, "EPHEMERIS_TYPE": 0, "CLASSIFICATION_TYPE": "U", "NORAD_CAT_ID": 29522, "ELEMENT_SET_NO": 999, "REV_AT_EPOCH": 98788, "BSTAR": 0.00010413, "MEAN_MOTION_DOT": 1.58e-06, "MEAN_MOTION_DDOT": 0}, "tle": {"line1": "1 29522U 06050A   25359.71145685  .00000158  00000+0  10413-3 0  9997", "line2": "2 29522  98.7393   4.8304 0009964 186.2751 173.8299 14.14924949987884"}}, "geometry": {"type": "Point", "coordinates": [-156.25185672749777, 64.35587223127891]}}, {"type": "Feature", "properties": {"norad_id": 32958, "name": "FENGYUN 3A", "group": "weather", "lat": 45.64111547947708, "lon": -69.78259944574265, "alt_km": 827.1118000819379, "timestamp": "2025-12-25T22:42:16.639321+00:00", "meta": {"OBJECT_NAME": "FENGYUN 3A", "OBJECT_ID": "2008-026A", "EPOCH": "2025-12-25T19:06:13.205088", "MEAN_MOTION": 14.19518673, "ECCENTRICITY": 0.0007611, "INCLINATION": 98.6714, "RA_OF_ASC_NODE": 299.0489, "ARG_OF_PERICENTER": 268.0432, "MEAN_ANOMALY": 91.9873, "EPHEMERIS_TYPE": 0, "CLASSIFICATION_TYPE": "U", "NORAD_CAT_ID": 32958, "ELEMENT_SET_NO": 999, "REV_AT_EPOCH": 91080, "BSTAR": 8.6704e-05, "MEAN_MOTION_DOT": 1.39e-06, "MEAN_MOTION_DDOT": 0}, "tle": {"line1": "1 32958U 08026A   25359.79598617  .00000139  00000+0  86704-4 0  9990", "line2": "2 32958  98.6714 299.0489 0007611 268.0432  91.9873 14.19518673910805"}}, "geometry": {"type": "Point", "coordinates": [-69.78259944574265, 45.64111547947708]}}, {"type": "Feature", "properties": {"norad_id": 35491, "name": "GOES 14", "group": "weather", "lat": -0.9894534127288429, "lon": -42.81409547640313, "alt_km": 35832.88983185497, "timestamp": "2025-12-25T22:42:16.639335+00:00", "meta": {"OBJECT_NAME": "GOES 14", "OBJECT_ID": "2009-033A", "EPOCH": "2025-12-25T15:55:40.730304", "MEAN_MOTION": 1.00097035, "ECCENTRICITY": 7.19e-05, "INCLINATION": 1.2354, "RA_OF_ASC_NODE": 85.272, "ARG_OF_PERICENTER": 193.0437, "MEAN_ANOMALY": 297.1266, "EPHEMERIS_TYPE": 0, "CLASSIFICATION_TYPE": "U", "NORAD_CAT_ID": 35491, "ELEMENT_SET_NO": 999, "REV_AT_EPOCH": 485, "BSTAR": 0, "MEAN_MOTION_DOT": 3.9e-07, "MEAN_MOTION_DDOT": 0}, "tle": {"line1": "1 35491U 09033A   25359.66366586  .00000039  00000+0  00000+0 0  9997", "line2": "2 35491   1.2354  85.2720 0000719 193.0437 297.1266  1.00097035  4852"}}, "geometry": {"type": "Point", "coordinates": [-42.81409547640313, -0.9894534127288429]}}, {"type": "Feature", "properties": {"norad_id": 35951, "name": "DMSP 5D-3 F18 (USA 210)", "group": "weather", "lat": -25.13163186029953, "lon": -19.51014142683225, "alt_km": 843.5332971912103, "timestamp": "2025-12-25T22:42:16.639348+00:00", "meta": {"OBJECT_NAME": "DMSP 5D-3 F18 (USA 210)", "OBJECT_ID": "2009-057A", "EPOCH": "2025-12-25T17:43:57.012384", "MEAN_MOTION": 14.1477775, "ECCENTRICITY": 0.0011673, "INCLINATION": 98.885, "RA_OF_ASC_NODE": 336.0755, "ARG_OF_PERICENTER": 28.3685, "MEAN_ANOMALY": 331.8122, "EPHEMERIS_TYPE": 0, "CLASSIFICATION_TYPE": "U", "NORAD_CAT_ID": 35951, "ELEMENT_SET_NO": 999, "REV_AT_EPOCH": 83506, "BSTAR": 0.00017187, "MEAN_MOTION_DOT": 2.87e-06, "MEAN_MOTION_DDOT": 0}, "tle": {"line1": "1 35951U 09057A   25359.73885431  .00000287  00000+0  17187-3 0  9990", "line2": "2 35951  98.8850 336.0755 0011673  28.3685 331.8122 14.14777750835067"}}, "geometry": {"type": "Point", "coordinates": [-19.51014142683225, -25.13163186029953]}}, {"type": "Feature", "properties": {"norad_id": 36411, "name": "EWS-G2 (GOES 15)", "group": "weather", "lat": 0.6677520325909786, "lon": 136.55891458123133, "alt_km": 35801.06827507444, "timestamp": "2025-12-25T22:42:16.639363+00:00", "meta": {"OBJECT_NAME": "EWS-G2 (GOES 15)", "OBJECT_ID": "2010-008A", "EPOCH": "2025-12-25T15:11:31.632000", "MEAN_MOTION": 1.00271095, "ECCENTRICITY": 0.0005603, "INCLINATION": 0.8435, "RA_OF_ASC_NODE": 86.0673, "ARG_OF_PERICENTER": 179.344, "MEAN_ANOMALY": 118.2117, "EPHEMERIS_TYPE": 0, "CLASSIFICATION_TYPE": "U", "NORAD_CAT_ID": 36411, "ELEMENT_SET_NO": 999, "REV_AT_EPOCH": 5789, "BSTAR": 0, "MEAN_MOTION_DOT": 6e-07, "MEAN_MOTION_DDOT": 0}, "tle": {"line1": "1 36411U 10008A   25359.63300500  .00000060  00000+0  00000+0 0  9999", "line2": "2 36411   0.8435  86.0673 0005603 179.3440 118.2117  1.00271095 57894"}}, "geometry": {"type": "Point", "coordinates": [136.55891458123133, 0.6677520325909786]}}, {"type": "Feature", "properties": {"norad_id": 36744, "name": "COMS 1", "group": "weather", "lat": 3.552659520254855, "lon": -156.49694577338977, "alt_km": 35786.04239431247, "timestamp": "2025-12-25T22:42:16.639376+00:00", "meta": {"OBJECT_NAME": "COMS 1", "OBJECT_ID": "2010-032A", "EPOCH": "2025-12-25T12:42:15.782112", "MEAN_MOTION": 1.00270082, "ECCENTRICITY": 8.88e-05, "INCLINATION": 4.3689, "RA_OF_ASC_NODE": 77.8525, "ARG_OF_PERICENTER": 213.8569, "MEAN_ANOMALY": 121.3153, "EPHEMERIS_TYPE": 0, "CLASSIFICATION_TYPE": "U", "NORAD_CAT_ID": 36744, "ELEMENT_SET_NO": 999, "REV_AT_EPOCH": 4934, "BSTAR": 0, "MEAN_MOTION_DOT": -3.24e-06, "MEAN_MOTION_DDOT": 0}, "tle": {"line1": "1 36744U 10032A   25359.52934933 -.00000324  00000+0  00000+0 0  9990", "line2": "2 36744   4.3689  77.8525 0000888 213.8569 121.3153  1.00270082 49344"}}, "geometry": {"type": "Point", "coordinates": [-156.49694577338977, 3.552659520254855]}}, {"type": "Feature", "properties": {"norad_id": 37214, "name": "FENGYUN 3B", "group": "weather", "lat": -58.662439299149035, "lon": 55.08071242340034, "alt_km": 835.4410606178271, "timestamp": "2025-12-25T22:42:16.639388+00:00", "meta": {"OBJECT_NAME": "FENGYUN 3B", "OBJECT_ID": "2010-059A", "EPOCH": "2025-12-25T18:25:14.222208", "MEAN_MOTION": 14.1479425, "ECCENTRICITY": 0.0021505, "INCLINATION": 98.9886, "RA_OF_ASC_NODE": 39.8344, "ARG_OF_PERICENTER": 320.2666, "MEAN_ANOMALY": 151.3833, "EPHEMERIS_TYPE": 0, "CLASSIFICATION_TYPE": "U", "NORAD_CAT_ID": 37214, "ELEMENT_SET_NO": 999, "REV_AT_EPOCH": 78290, "BSTAR": 0.0002216, "MEAN_MOTION_DOT": 3.83e-06, "MEAN_MOTION_DDOT": 0}, "tle": {"line1": "1 37214U 10059A   25359.76752572  .00000383  00000+0  22160-3 0  9994", "line2": "2 37214  98.9886  39.8344 0021505 320.2666 151.3833 14.14794250782903"}}, "geometry": {"type": "Point", "coordinates": [55.08071242340034, -58.662439299149035]}}, {"type": "Feature", "properties": {"norad_id": 37849, "name": "SUOMI NPP", "group": "weather", "lat": 4.964119713403713, "lon": -63.59988096173171, "alt_km": 829.1757310907515, "timestamp": "2025-12-25T22:42:16.639399+00:00", "meta": {"OBJECT_NAME": "SUOMI NPP", "OBJECT_ID": "2011-061A", "EPOCH": "2025-12-22T15:10:21.732672", "MEAN_MOTION": 14.19516903, "ECCENTRICITY": 0.00024883, "INCLINATION": 98.7787, "RA_OF_ASC_NODE": 293.8852, "ARG_OF_PERICENTER": 103.0781, "MEAN_ANOMALY": 257.0673, "EPHEMERIS_TYPE": 0, "CLASSIFICATION_TYPE": "U", "NORAD_CAT_ID": 37849, "ELEMENT_SET_NO": 999, "REV_AT_EPOCH": 73339, "BSTAR": 6.3406935e-05, "MEAN_MOTION_DOT": 8.9e-07, "MEAN_MOTION_DDOT": 0}, "tle": {"line1": "1 37849U 11061A   25356.63219598  .00000089  00000+0  63407-4 0  9994", "line2": "2 37849  98.7787 293.8852 0002488 103.0781 257.0673 14.19516903733392"}}, "geometry": {"type": "Point", "coordinates": [-63.59988096173171, 4.964119713403713]}}]}